[{"OBJECT_NAME":"KSM1-B","OBJECT_ID":"2020-081K","EPOCH":"2026-03-09T23:03:07.817760","MEAN_MOTION":15.22983333,"ECCENTRICITY":0.00044009,"INCLINATION":36.9029,"RA_OF_ASC_NODE":318.3288,"ARG_OF_PERICENTER":174.9385,"MEAN_ANOMALY":185.1408,"EPHEMERIS_TYPE":0,"CLASSIFICATION_TYPE":"U","NORAD_CAT_ID":46914,"ELEMENT_SET_NO":999,"REV_AT_EPOCH":29704,"BSTAR":0.00033094478,"MEAN_MOTION_DOT":7.872e-5,"MEAN_MOTION_DDOT":0},{"OBJECT_NAME":"GAOFEN-11 04","OBJECT_ID":"2022-176A","EPOCH":"2026-03-09T22:38:29.569920","MEAN_MOTION":15.23794784,"ECCENTRICITY":0.00022793,"INCLINATION":97.406,"RA_OF_ASC_NODE":203.316,"ARG_OF_PERICENTER":352.388,"MEAN_ANOMALY":7.7322,"EPHEMERIS_TYPE":0,"CLASSIFICATION_TYPE":"U","NORAD_CAT_ID":54818,"ELEMENT_SET_NO":999,"REV_AT_EPOCH":17814,"BSTAR":0.00036628419,"MEAN_MOTION_DOT":8.751e-5,"MEAN_MOTION_DDOT":0}]
